[{"OBJECT_NAME":"VSP ROSE","OBJECT_ID":"2024-043AC","EPOCH":"2026-03-09T21:48:06.922944","MEAN_MOTION":15.27746075,"ECCENTRICITY":0.00099339,"INCLINATION":97.5443,"RA_OF_ASC_NODE":203.927,"ARG_OF_PERICENTER":232.2702,"MEAN_ANOMALY":127.7637,"EPHEMERIS_TYPE":0,"CLASSIFICATION_TYPE":"U","NORAD_CAT_ID":59124,"ELEMENT_SET_NO":999,"REV_AT_EPOCH":11182,"BSTAR":0.00025731354,"MEAN_MOTION_DOT":6.907e-5,"MEAN_MOTION_DDOT":0},{"OBJECT_NAME":"STARLINK-35766","OBJECT_ID":"2025-303U","EPOCH":"2026-03-09T01:47:30.481440","MEAN_MOTION":15.27573054,"ECCENTRICITY":0.00018216,"INCLINATION":43.0028,"RA_OF_ASC_NODE":313.9692,"ARG_OF_PERICENTER":282.3192,"MEAN_ANOMALY":77.7455,"EPHEMERIS_TYPE":0,"CLASSIFICATION_TYPE":"U","NORAD_CAT_ID":67181,"ELEMENT_SET_NO":999,"REV_AT_EPOCH":1264,"BSTAR":0.0013757799,"MEAN_MOTION_DOT":0.00037783,"MEAN_MOTION_DDOT":0}]
